ASTRA 1D                
1 23331U 94070A   21275.40261205 -.00000265  00000-0  00000+0 0  9992
2 23331   9.7519  39.4197 0003641 154.7705 249.1343  1.00271227 98938
AMC-1 (GE-1)            
1 24315U 96054A   21274.61806618  .00000066  00000-0  00000-0 0  9993
2 24315   5.0085  75.2387 0003054 119.2335 267.7187  1.00273141 29089
AMC-3 (GE-3)            
1 24936U 97050A   21274.77335272 -.00000260  00000-0  00000-0 0  9996
2 24936   3.9125  81.8076 0003053 124.1737  11.1643  1.00270662 35190
NSS-5                   
1 24957U 97053A   21275.08256045  .00000106  00000-0  00000+0 0  9994
2 24957   6.9176  61.0101 0003518 124.1457 266.0749  1.00272125 88008
ASTRA 1G                
1 25071U 97076A   21275.15042819  .00000117  00000-0  00000+0 0  9999
2 25071   5.6555  70.1557 0003473 118.1268 256.3677  1.00270801 87305
ASTRA 2A                
1 25462U 98050A   21275.22395309  .00000148  00000-0  00000+0 0  9993
2 25462   2.7587  88.2647 0002052  98.2370 293.2912  1.00268919 84504
AMC-4 (GE-4)            
1 25954U 99060A   21275.50103008  .00000085  00000-0  00000+0 0  9995
2 25954   0.8698  94.5798 0003294 111.9249 210.4236  1.00272791 80257
NSS-11 (AAP-1)          
1 26554U 00059A   21274.82280542  .00000023  00000-0  00000-0 0  9998
2 26554   0.0329  62.3284 0002715 152.6355 268.0317  1.00272672 24061
AMC-6 (GE-6)            
1 26580U 00067A   21274.68822781  .00000102  00000-0  00000-0 0  9995
2 26580   0.0328  63.2093 0002695 128.9338 287.2704  1.00272723 76686
ASTRA 2D                
1 26638U 00081A   21275.21529854  .00000124  00000-0  00000+0 0  9993
2 26638   6.7494  61.9667 0004749 170.0802 240.9099  1.00165443 76150
AMC-8 (GE-8)            
1 26639U 00081B   21275.50097334  .00000086  00000-0  00000+0 0  9996
2 26639   1.8002  91.2519 0002625 103.6067 221.9437  1.00272438 76046
ASTRA 2C                
1 26853U 01025A   21275.47130487 -.00000259  00000-0  00000+0 0  9999
2 26853   3.9403  81.5920 0002580 113.3990 273.6558  1.00270992 74345
ASTRA 3A                
1 27400U 02015B   21275.48114196 -.00000201  00000-0  00000+0 0  9995
2 27400   6.8622  60.7796 0000996 138.6670 258.3837  1.00274781 71485
NSS-7                   
1 27414U 02019A   21275.28260699 -.00000156  00000-0  00000+0 0  9991
2 27414   5.2991  73.3323 0002164 122.8510 256.7823  1.00272294 71322
NSS-6                   
1 27603U 02057A   21275.39995926  .00000106  00000-0  00000+0 0  9997
2 27603   0.9590  94.5106 0003346 101.0747 150.2616  1.00274732 68803
AMC-11 (GE-11)          
1 28252U 04017A   21274.68979774  .00000067  00000-0  00000-0 0  9997
2 28252   0.0360  51.7672 0002618 144.1390 292.0778  1.00271255 63644
AMC-15                  
1 28446U 04041A   21274.63996266 -.00000091  00000-0  00000-0 0  9997
2 28446   0.0411  37.4050 0002589 158.3314 300.2122  1.00272105 62084
NSS-10 (AMC-12)         
1 28526U 05003A   21274.78024295 -.00000251  00000-0  00000-0 0  9993
2 28526   2.1441  89.9871 0002898 106.2906  57.9144  1.00271864 35917
ASTRA 1KR               
1 29055U 06012A   21275.28938133  .00000117  00000-0  00000+0 0  9992
2 29055   0.0165 235.8603 0005170 339.1058 279.6542  1.00273287 56516
AMC-18                  
1 29644U 06054B   21274.55583066 -.00000218  00000-0  00000-0 0  9996
2 29644   0.0229  95.7621 0002522 103.5134 288.3513  1.00272628 54319
ASTRA 1L                
1 31306U 07016A   21275.34285685  .00000117  00000-0  00000+0 0  9993
2 31306   0.0468 341.1921 0003356 260.9839 271.7304  1.00272865 52808
ASTRA 4A (SIRIUS 4)     
1 32299U 07057A   21274.78870311  .00000030  00000-0  00000-0 0  9998
2 32299   0.0371  66.9387 0002591 127.4346 105.1209  1.00273086 34430
AMC-21                  
1 33275U 08038B   21274.69075715  .00000034  00000-0  00000-0 0  9992
2 33275   0.0330  66.1010 0002562 135.0672 293.2636  1.00272253 48253
ASTRA 1M                
1 33436U 08057A   21275.00686716  .00000117  00000-0  00000+0 0  9998
2 33436   0.0211 132.0848 0004737  36.7979 223.7395  1.00273155 47245
CIEL-2                  
1 33453U 08063A   21274.69023383  .00000056  00000-0  00000-0 0  9996
2 33453   0.0131 166.9721 0003144  42.3384 280.9817  1.00271908 46905
NSS-9                   
1 33749U 09008A   21275.45690164  .00000069  00000-0  00000+0 0  9999
2 33749   0.0403  64.6611 0002013 135.0110 159.2926  1.00270930 46338
SES-7 (PROTOSTAR 2)     
1 34941U 09027A   21274.76286236 -.00000348  00000-0  00000-0 0  9991
2 34941   0.0696  91.5834 0001871 143.1153 158.9032  1.00272723 45370
NSS-12                  
1 36032U 09058A   21274.80603009  .00000069  00000-0  00000-0 0  9993
2 36032   0.0259  83.1844 0002813 116.1946 158.5585  1.00271922 43673
SES-1                   
1 36516U 10016A   21274.64330459 -.00000117  00000-0  00000-0 0  9999
2 36516   0.0258 283.9169 0002431 273.7821 303.4939  1.00271894 41802
ASTRA 3B                
1 36581U 10021A   21275.08645947  .00000134  00000-0  00000+0 0  9994
2 36581   0.0681  64.5241 0003694 119.6624 241.4926  1.00268774 41416
SES-3                   
1 37748U 11035A   21275.50069545 -.00000105  00000-0  00000+0 0  9996
2 37748   0.0424  43.5925 0002975 158.1936 246.9133  1.00272499 37467
ASTRA 1N                
1 37775U 11041A   21274.79158132  .00000117  00000-0  00000-0 0  9997
2 37775   0.0226  49.6305 0001371  97.7124 167.5484  1.00271420 27281
SES-2                   
1 37809U 11049A   21275.46210118 -.00000199  00000-0  00000+0 0  9991
2 37809   0.0308  84.9399 0002723 108.0660 257.7655  1.00273396 36767
QUETZSAT 1              
1 37826U 11054A   21275.46805346 -.00000245  00000-0  00000+0 0  9991
2 37826   0.0343  59.2835 0002795 138.9968 264.6440  1.00272777 36869
SES-4                   
1 38087U 12007A   21275.08730095 -.00000171  00000-0  00000+0 0  9994
2 38087   0.0205 265.4830 0002400 291.7918 183.1937  1.00271840 35256
SES-5                   
1 38652U 12036A   21275.31785506  .00000031  00000-0  00000+0 0  9991
2 38652   0.0593 292.6663 0001856 258.3265 299.6911  1.00271721 33833
ASTRA 2F                
1 38778U 12051A   21275.40049476  .00000147  00000-0  00000+0 0  9994
2 38778   0.0575 229.7763 0004128 344.7108 329.2282  1.00272144 33050
SES-6                   
1 39172U 13026A   21275.06678601 -.00000264  00000-0  00000+0 0  9997
2 39172   0.0283 305.5359 0002324 258.3462 150.6760  1.00269686 30486
O3B FM5                 
1 39188U 13031A   21274.59440885 -.00000021  00000-0  00000-0 0  9990
2 39188   0.0488 347.5015 0002195 208.4218 164.0746  5.00116115151014
O3B FM4                 
1 39189U 13031B   21273.66068511 -.00000022  00000-0  00000-0 0  9991
2 39189   0.0462  20.9796 0004245 146.7367 192.2988  5.00116201150984
O3B FM2                 
1 39190U 13031C   21274.71258334 -.00000020  00000-0  00000-0 0  9992
2 39190   0.0466  27.4337 0007224 130.4193 202.1830  5.00115889151080
O3B PFM                 
1 39191U 13031D   21274.76613207 -.00000020  00000-0  00000-0 0  9992
2 39191   0.0476 358.1108 0002344 182.4897 179.4040  5.00115955150888
ASTRA 2E                
1 39285U 13056A   21275.08018084  .00000148  00000-0  00000+0 0  9990
2 39285   0.0579  12.6902 0002475 181.4883 234.2197  1.00270392 29352
SES-8                   
1 39460U 13071A   21275.45263903 -.00000273  00000-0  00000+0 0  9995
2 39460   0.0280 237.2032 0001728 278.2987 113.8554  1.00272815 28636
ASTRA 5B                
1 39617U 14011B   21275.12549281  .00000152  00000-0  00000+0 0  9999
2 39617   0.0086  62.3074 0003647 131.2106 254.2389  1.00268967 27638
O3B FM3                 
1 40079U 14038A   21275.24704338 -.00000020  00000-0  00000+0 0  9996
2 40079   0.0447  11.8691 0002532 234.2976 113.8117  5.00115446132136
O3B FM7                 
1 40080U 14038B   21273.99408798 -.00000021  00000-0  00000-0 0  9991
2 40080   0.0415  15.8040 0003598 144.0808 200.1341  5.00115894131821
O3B FM6                 
1 40081U 14038C   21274.42000861 -.00000021  00000-0  00000-0 0  9990
2 40081   0.0454  12.6433 0002585 177.7924 169.5638  5.00115562131798
O3B FM8                 
1 40082U 14038D   21273.47452999 -.00000022  00000-0  00000-0 0  9999
2 40082   0.0467  16.1673 0002707 175.1642 168.6671  5.00115472131868
O3B FM10                
1 40348U 14083A   21274.50012806 -.00000021  00000-0  00000-0 0  9997
2 40348   0.0500   3.3104 0002567 188.6118 168.0766  5.00115893123866
O3B FM11                
1 40349U 14083B   21274.51332482 -.00000021  00000-0  00000-0 0  9994
2 40349   0.0456   1.3598 0002437 173.8520 184.7954  5.00115188123884
O3B FM12                
1 40350U 14083C   21274.98069928 -.00000020  00000-0  00000+0 0  9997
2 40350   0.0459   2.7345 0002689 183.8474 173.4194  5.00115751124048
O3B FM9                 
1 40351U 14083D   21274.56736857 -.00000021  00000-0  00000-0 0  9996
2 40351   0.0447   0.3826 0002532 190.0081 169.6089  5.00115114124048
ASTRA 2G                
1 40364U 14089A   21275.40049476  .00000147  00000-0  00000+0 0  9991
2 40364   0.0489  14.9702 0002007  82.6881  86.0758  1.00270027 24789
SES-9                   
1 41380U 16013A   21274.80928660 -.00000348  00000-0  00000-0 0  9998
2 41380   0.0340 274.6139 0001385 222.1092 273.6889  1.00271412 20195
SES-10                  
1 42432U 17017A   21274.49980027 -.00000275  00000-0  00000+0 0  9990
2 42432   0.0172 229.7684 0002620 325.1360 288.5911  1.00272960 16485
SES-15                  
1 42709U 17026A   21275.29227765  .00000056  00000-0  00000+0 0  9995
2 42709   0.0162 356.8351 0000743 197.9497 152.5398  1.00274834 16957
SES-11 (ECHOSTAR 105)   
1 42967U 17063A   21275.05387773 -.00000092  00000-0  00000+0 0  9993
2 42967   0.0451 273.3698 0002716 290.7542  81.3382  1.00271972 14563
SES-14                  
1 43175U 18012B   21274.77823693 -.00000281  00000-0  00000-0 0  9995
2 43175   0.0181 236.1401 0001123 322.5984  44.6786  1.00272483 13825
O3B FM15                
1 43231U 18024A   21274.63377667 -.00000020  00000-0  00000-0 0  9992
2 43231   0.0534   4.2185 0002586 185.5897 170.1916  5.00115643 65002
O3B FM16                
1 43232U 18024B   21274.48720038 -.00000021  00000-0  00000-0 0  9991
2 43232   0.0576   4.1052 0002597 185.3885 170.5062  5.00115583 64916
O3B FM14                
1 43233U 18024C   21274.12710351 -.00000021  00000-0  00000-0 0  9990
2 43233   0.0590   4.7548 0002674 180.5977 174.6494  5.00116087 64907
O3B FM13                
1 43234U 18024D   21274.54064895 -.00000021  00000-0  00000-0 0  9992
2 43234   0.0436 337.9095 0000874 128.0804 254.0246  5.00115640 65049
SES-12                  
1 43488U 18049A   21275.45263903 -.00000272  00000-0  00000+0 0  9999
2 43488   0.0395  54.0479 0002124 193.1720  22.1356  1.00271915 12184
O3B FM20                
1 44112U 19020A   21274.55327637 -.00000021  00000-0  00000-0 0  9992
2 44112   0.0501   4.1940 0002343 179.8703 175.9387  5.00115705 45547
O3B FM19                
1 44113U 19020B   21274.94041980 -.00000020  00000-0  00000+0 0  9998
2 44113   0.0425 316.6889 0001448 249.6124 153.6962  5.00115675 45621
O3B FM17                
1 44114U 19020C   21273.66113870 -.00000022  00000-0  00000-0 0  9998
2 44114   0.0619  20.2005 0002517 169.3312 170.4682  5.00115247 45452
O3B FM18                
1 44115U 19020D   21274.40741915 -.00000021  00000-0  00000-0 0  9998
2 44115   0.0499   3.6334 0002696 187.0458 169.3200  5.00115620 45600
